[{"OBJECT_NAME":"CINEMA","OBJECT_ID":"2012-048G","EPOCH":"2026-03-09T23:21:38.910528","MEAN_MOTION":15.41758997,"ECCENTRICITY":0.00644529,"INCLINATION":64.645,"RA_OF_ASC_NODE":61.8658,"ARG_OF_PERICENTER":204.5071,"MEAN_ANOMALY":155.2999,"EPHEMERIS_TYPE":0,"CLASSIFICATION_TYPE":"U","NORAD_CAT_ID":38764,"ELEMENT_SET_NO":999,"REV_AT_EPOCH":10191,"BSTAR":0.00076174658,"MEAN_MOTION_DOT":0.0003483,"MEAN_MOTION_DDOT":0},{"OBJECT_NAME":"STARLINK-35803","OBJECT_ID":"2025-268M","EPOCH":"2026-03-09T02:23:23.875296","MEAN_MOTION":15.27571654,"ECCENTRICITY":0.00018787,"INCLINATION":43.0033,"RA_OF_ASC_NODE":350.0373,"ARG_OF_PERICENTER":251.0604,"MEAN_ANOMALY":109.0044,"EPHEMERIS_TYPE":0,"CLASSIFICATION_TYPE":"U","NORAD_CAT_ID":66568,"ELEMENT_SET_NO":999,"REV_AT_EPOCH":1787,"BSTAR":0.0015410089,"MEAN_MOTION_DOT":0.00042377,"MEAN_MOTION_DDOT":0}]
